{"type": "FeatureCollection", "features": [{"type": "Feature", "properties": {"norad_id": 22490, "name": "SCD 1", "group": "resource", "lat": -17.33730152515148, "lon": -87.66098497388367, "alt_km": 720.2798780451085, "timestamp": "2025-12-06T22:38:42.391238+00:00", "meta": {"OBJECT_NAME": "SCD 1", "OBJECT_ID": "1993-009B", "EPOCH": "2025-12-06T15:18:49.694688", "MEAN_MOTION": 14.45992193, "ECCENTRICITY": 0.00417417, "INCLINATION": 24.9707, "RA_OF_ASC_NODE": 316.3528, "ARG_OF_PERICENTER": 260.1107, "MEAN_ANOMALY": 261.2359, "EPHEMERIS_TYPE": 0, "CLASSIFICATION_TYPE": "U", "NORAD_CAT_ID": 22490, "ELEMENT_SET_NO": 999, "REV_AT_EPOCH": 73321, "BSTAR": 0.00017593214, "MEAN_MOTION_DOT": 8.3e-06, "MEAN_MOTION_DDOT": 0}, "tle": {"line1": "1 22490U 93009B   25340.63807517  .00000830  00000+0  17593-3 0  9997", "line2": "2 22490  24.9707 316.3528 0041741 260.1107 261.2359 14.45992193733211"}}, "geometry": {"type": "Point", "coordinates": [-87.66098497388367, -17.33730152515148]}}, {"type": "Feature", "properties": {"norad_id": 25397, "name": "TECHSAT 1B (GO-32)", "group": "resource", "lat": -15.619978044622865, "lon": -33.44089776205469, "alt_km": 815.0768071764896, "timestamp": "2025-12-06T22:38:42.391268+00:00", "meta": {"OBJECT_NAME": "TECHSAT 1B (GO-32)", "OBJECT_ID": "1998-043D", "EPOCH": "2025-12-06T09:13:55.286688", "MEAN_MOTION": 14.24374406, "ECCENTRICITY": 0.00021888, "INCLINATION": 98.9914, "RA_OF_ASC_NODE": 323.4503, "ARG_OF_PERICENTER": 67.7591, "MEAN_ANOMALY": 292.3819, "EPHEMERIS_TYPE": 0, "CLASSIFICATION_TYPE": "U", "NORAD_CAT_ID": 25397, "ELEMENT_SET_NO": 999, "REV_AT_EPOCH": 42388, "BSTAR": 0.00011104304, "MEAN_MOTION_DOT": 2.1e-06, "MEAN_MOTION_DDOT": 0}, "tle": {"line1": "1 25397U 98043D   25340.38466767  .00000210  00000+0  11104-3 0  9993", "line2": "2 25397  98.9914 323.4503 0002188  67.7591 292.3819 14.24374406423886"}}, "geometry": {"type": "Point", "coordinates": [-33.44089776205469, -15.619978044622865]}}, {"type": "Feature", "properties": {"norad_id": 25504, "name": "SCD 2", "group": "resource", "lat": -0.41689016683465274, "lon": 176.7434230864235, "alt_km": 742.2698640794924, "timestamp": "2025-12-06T22:38:42.391284+00:00", "meta": {"OBJECT_NAME": "SCD 2", "OBJECT_ID": "1998-060A", "EPOCH": "2025-12-06T14:37:21.067968", "MEAN_MOTION": 14.45418119, "ECCENTRICITY": 0.00166006, "INCLINATION": 24.9935, "RA_OF_ASC_NODE": 179.6984, "ARG_OF_PERICENTER": 247.9753, "MEAN_ANOMALY": 167.976, "EPHEMERIS_TYPE": 0, "CLASSIFICATION_TYPE": "U", "NORAD_CAT_ID": 25504, "ELEMENT_SET_NO": 999, "REV_AT_EPOCH": 43243, "BSTAR": 0.00013399497, "MEAN_MOTION_DOT": 6.62e-06, "MEAN_MOTION_DDOT": 0}, "tle": {"line1": "1 25504U 98060A   25340.60927162  .00000662  00000+0  13399-3 0  9997", "line2": "2 25504  24.9935 179.6984 0016600 247.9753 167.9760 14.45418119432434"}}, "geometry": {"type": "Point", "coordinates": [176.7434230864235, -0.41689016683465274]}}, {"type": "Feature", "properties": {"norad_id": 25757, "name": "DLR-TUBSAT", "group": "resource", "lat": -20.0146667092474, "lon": -31.54057057630595, "alt_km": 729.1516144851048, "timestamp": "2025-12-06T22:38:42.391297+00:00", "meta": {"OBJECT_NAME": "DLR-TUBSAT", "OBJECT_ID": "1999-029B", "EPOCH": "2025-12-06T09:30:38.592000", "MEAN_MOTION": 14.52354024, "ECCENTRICITY": 0.00135532, "INCLINATION": 98.6557, "RA_OF_ASC_NODE": 324.7145, "ARG_OF_PERICENTER": 212.6894, "MEAN_ANOMALY": 147.3463, "EPHEMERIS_TYPE": 0, "CLASSIFICATION_TYPE": "U", "NORAD_CAT_ID": 25757, "ELEMENT_SET_NO": 999, "REV_AT_EPOCH": 40526, "BSTAR": 8.707757e-05, "MEAN_MOTION_DOT": 3.06e-06, "MEAN_MOTION_DDOT": 0}, "tle": {"line1": "1 25757U 99029B   25340.39628000  .00000306  00000+0  87078-4 0  9999", "line2": "2 25757  98.6557 324.7145 0013553 212.6894 147.3463 14.52354024405268"}}, "geometry": {"type": "Point", "coordinates": [-31.54057057630595, -20.0146667092474]}}, {"type": "Feature", "properties": {"norad_id": 25994, "name": "TERRA", "group": "resource", "lat": -44.53097142452923, "lon": -155.0871663474547, "alt_km": 697.9188672152295, "timestamp": "2025-12-06T22:38:42.391309+00:00", "meta": {"OBJECT_NAME": "TERRA", "OBJECT_ID": "1999-068A", "EPOCH": "2025-12-06T15:33:38.850912", "MEAN_MOTION": 14.60942173, "ECCENTRICITY": 0.0003497, "INCLINATION": 97.9757, "RA_OF_ASC_NODE": 32.5562, "ARG_OF_PERICENTER": 110.1193, "MEAN_ANOMALY": 3.2989, "EPHEMERIS_TYPE": 0, "CLASSIFICATION_TYPE": "U", "NORAD_CAT_ID": 25994, "ELEMENT_SET_NO": 999, "REV_AT_EPOCH": 38149, "BSTAR": 0.00021554677, "MEAN_MOTION_DOT": 1.011e-05, "MEAN_MOTION_DDOT": 0}, "tle": {"line1": "1 25994U 99068A   25340.64836633  .00001011  00000+0  21555-3 0  9997", "line2": "2 25994  97.9757  32.5562 0003497 110.1193   3.2989 14.60942173381490"}}, "geometry": {"type": "Point", "coordinates": [-155.0871663474547, -44.53097142452923]}}, {"type": "Feature", "properties": {"norad_id": 27004, "name": "MAROC-TUBSAT", "group": "resource", "lat": -56.54619487925357, "lon": 164.4363072634132, "alt_km": 993.0420040303115, "timestamp": "2025-12-06T22:38:42.391321+00:00", "meta": {"OBJECT_NAME": "MAROC-TUBSAT", "OBJECT_ID": "2001-056D", "EPOCH": "2025-12-06T10:47:21.291936", "MEAN_MOTION": 13.70252437, "ECCENTRICITY": 0.00190923, "INCLINATION": 99.7911, "RA_OF_ASC_NODE": 148.7843, "ARG_OF_PERICENTER": 276.8932, "MEAN_ANOMALY": 109.6598, "EPHEMERIS_TYPE": 0, "CLASSIFICATION_TYPE": "U", "NORAD_CAT_ID": 27004, "ELEMENT_SET_NO": 999, "REV_AT_EPOCH": 19979, "BSTAR": 3.7952508e-05, "MEAN_MOTION_DOT": -1.3e-07, "MEAN_MOTION_DDOT": 0}, "tle": {"line1": "1 27004U 01056D   25340.44955199 -.00000013  00000+0  37953-4 0  9990", "line2": "2 27004  99.7911 148.7843 0019092 276.8932 109.6598 13.70252437199791"}}, "geometry": {"type": "Point", "coordinates": [164.4363072634132, -56.54619487925357]}}, {"type": "Feature", "properties": {"norad_id": 27424, "name": "AQUA", "group": "resource", "lat": 77.9560106307733, "lon": -102.12431966790972, "alt_km": 679.5420273264008, "timestamp": "2025-12-06T22:38:42.391332+00:00", "meta": {"OBJECT_NAME": "AQUA", "OBJECT_ID": "2002-022A", "EPOCH": "2025-12-06T14:35:17.143584", "MEAN_MOTION": 14.61787006, "ECCENTRICITY": 9.028e-05, "INCLINATION": 98.4029, "RA_OF_ASC_NODE": 301.3873, "ARG_OF_PERICENTER": 112.6755, "MEAN_ANOMALY": 3.089, "EPHEMERIS_TYPE": 0, "CLASSIFICATION_TYPE": "U", "NORAD_CAT_ID": 27424, "ELEMENT_SET_NO": 999, "REV_AT_EPOCH": 25513, "BSTAR": 0.00046715851, "MEAN_MOTION_DOT": 2.282e-05, "MEAN_MOTION_DDOT": 0}, "tle": {"line1": "1 27424U 02022A   25340.60783731  .00002282  00000+0  46716-3 0  9994", "line2": "2 27424  98.4029 301.3873 0000902 112.6755   3.0890 14.61787006255132"}}, "geometry": {"type": "Point", "coordinates": [-102.12431966790972, 77.9560106307733]}}, {"type": "Feature", "properties": {"norad_id": 28051, "name": "IRS-P6 (RESOURCESAT-1)", "group": "resource", "lat": 57.725069869042535, "lon": -145.1518460711218, "alt_km": 755.284253681797, "timestamp": "2025-12-06T22:38:42.391343+00:00", "meta": {"OBJECT_NAME": "IRS-P6 (RESOURCESAT-1)", "OBJECT_ID": "2003-046A", "EPOCH": "2025-12-06T15:54:25.298784", "MEAN_MOTION": 14.36070668, "ECCENTRICITY": 0.00638431, "INCLINATION": 98.2187, "RA_OF_ASC_NODE": 21.3514, "ARG_OF_PERICENTER": 198.966, "MEAN_ANOMALY": 272.3966, "EPHEMERIS_TYPE": 0, "CLASSIFICATION_TYPE": "U", "NORAD_CAT_ID": 28051, "ELEMENT_SET_NO": 999, "REV_AT_EPOCH": 15289, "BSTAR": 0.00015442928, "MEAN_MOTION_DOT": 4.19e-06, "MEAN_MOTION_DDOT": 0}, "tle": {"line1": "1 28051U 03046A   25340.66279281  .00000419  00000+0  15443-3 0  9997", "line2": "2 28051  98.2187  21.3514 0063843 198.9660 272.3966 14.36070668152893"}}, "geometry": {"type": "Point", "coordinates": [-145.1518460711218, 57.725069869042535]}}, {"type": "Feature", "properties": {"norad_id": 28220, "name": "SHIYAN-1 (SY-1)", "group": "resource", "lat": -58.76226068537603, "lon": -151.0839225886777, "alt_km": 490.46189389366464, "timestamp": "2025-12-06T22:38:42.391354+00:00", "meta": {"OBJECT_NAME": "SHIYAN-1 (SY-1)", "OBJECT_ID": "2004-012A", "EPOCH": "2025-12-06T15:18:43.560288", "MEAN_MOTION": 15.27909954, "ECCENTRICITY": 0.00059927, "INCLINATION": 97.8943, "RA_OF_ASC_NODE": 41.8176, "ARG_OF_PERICENTER": 349.1109, "MEAN_ANOMALY": 10.9999, "EPHEMERIS_TYPE": 0, "CLASSIFICATION_TYPE": "U", "NORAD_CAT_ID": 28220, "ELEMENT_SET_NO": 999, "REV_AT_EPOCH": 18163, "BSTAR": 0.00077364367, "MEAN_MOTION_DOT": 0.00021042, "MEAN_MOTION_DDOT": 0}, "tle": {"line1": "1 28220U 04012A   25340.63800417  .00021042  00000+0  77364-3 0  9992", "line2": "2 28220  97.8943  41.8176 0005992 349.1109  10.9999 15.27909954181632"}}, "geometry": {"type": "Point", "coordinates": [-151.0839225886777, -58.76226068537603]}}, {"type": "Feature", "properties": {"norad_id": 28376, "name": "AURA", "group": "resource", "lat": -50.02647811738389, "lon": 101.09278699138713, "alt_km": 697.6971814023973, "timestamp": "2025-12-06T22:38:42.391364+00:00", "meta": {"OBJECT_NAME": "AURA", "OBJECT_ID": "2004-026A", "EPOCH": "2025-12-06T15:01:02.682336", "MEAN_MOTION": 14.60924806, "ECCENTRICITY": 0.00011701, "INCLINATION": 98.3178, "RA_OF_ASC_NODE": 290.824, "ARG_OF_PERICENTER": 93.0166, "MEAN_ANOMALY": 267.1168, "EPHEMERIS_TYPE": 0, "CLASSIFICATION_TYPE": "U", "NORAD_CAT_ID": 28376, "ELEMENT_SET_NO": 999, "REV_AT_EPOCH": 13809, "BSTAR": 0.00046685473, "MEAN_MOTION_DOT": 2.238e-05, "MEAN_MOTION_DDOT": 0}, "tle": {"line1": "1 28376U 04026A   25340.62572549  .00002238  00000+0  46685-3 0  9998", "line2": "2 28376  98.3178 290.8240 0001170  93.0166 267.1168 14.60924806138095"}}, "geometry": {"type": "Point", "coordinates": [101.09278699138713, -50.02647811738389]}}]}